NORAD_CAT_ID,OBJECT_NAME,OBJECT_TYPE,EPOCH,MEAN_MOTION,ECCENTRICITY,INCLINATION,RA_OF_ASC_NODE,ARG_OF_PERICENTER,MEAN_ANOMALY,BSTAR,MEAN_MOTION_DOT,MEAN_MOTION_DDOT,TLE_LINE0,TLE_LINE1,TLE_LINE2,SEMIMAJOR_AXIS,PERIOD,APOGEE,PERIGEE,DECAYED
55413.0,STARLINK-5060,PAYLOAD,2023-09-16 06:27:20,14.98327206,0.0003557,70.0009,207.1527,261.0975,98.9782,9.0186e-05,9.83e-06,0.0,0 STARLINK-5060,1 55413U 23014Y   23259.26898405  .00000983  00000-0  90186-4 0  9999,2 55413  70.0009 207.1527 0003557 261.0975  98.9782 14.98327206 35946,6950.202,96.107,574.539,569.594,0.0
55413.0,STARLINK-5060,PAYLOAD,2023-09-17 06:29:21,14.98334475,0.0003566,70.0011,204.6286,263.5282,96.5471,-8.3309e-06,-1.92e-06,0.0,0 STARLINK-5060,1 55413U 23014Y   23260.27038231 -.00000192  00000-0 -83309-5 0  9999,2 55413  70.0011 204.6286 0003566 263.5282  96.5471 14.98334475 35159,6950.179,96.107,574.522,569.566,0.0
55413.0,STARLINK-5060,PAYLOAD,2023-09-18 06:31:21,14.98333417,0.0003286,70.0014,202.1039,256.5135,103.5658,0.00024901,2.88e-05,0.0,0 STARLINK-5060,1 55413U 23014Y   23261.27177304  .00002880  00000-0  24901-3 0  9990,2 55413  70.0014 202.1039 0003286 256.5135 103.5658 14.98333417 35307,6950.182,96.107,574.331,569.763,0.0
55413.0,STARLINK-5060,PAYLOAD,2023-09-18 20:56:33,14.98340367,0.0003309,70.0016,200.5897,257.3593,102.7196,0.00011505,1.28e-05,0.0,0 STARLINK-5060,1 55413U 23014Y   23261.87260771  .00001280  00000-0  11505-3 0  9996,2 55413  70.0016 200.5897 0003309 257.3593 102.7196 14.98340367 36330,6950.161,96.106,574.326,569.726,0.0
55413.0,STARLINK-5060,PAYLOAD,2023-09-19 06:33:20,14.98350535,0.0002887,70.0023,199.5801,257.5713,102.5123,0.00022943,2.647e-05,0.0,0 STARLINK-5060,1 55413U 23014Y   23262.27315510  .00002647  00000-0  22943-3 0  9999,2 55413  70.0023 199.5801 0002887 257.5713 102.5123 14.98350535 35454,6950.129,96.106,574.001,569.988,0.0
55413.0,STARLINK-5060,PAYLOAD,2023-09-19 19:22:27,14.98328348,0.0003007,70.0019,198.2336,264.8586,95.223,-0.00015614,-1.955e-05,0.0,0 STARLINK-5060,1 55413U 23014Y   23262.80725740 -.00001955  00000-0 -15614-3 0  9998,2 55413  70.0019 198.2336 0003007 264.8586  95.2230 14.98328348 35535,6950.198,96.107,574.153,569.973,0.0
55413.0,STARLINK-5060,PAYLOAD,2023-09-20 01:47:00,14.98317484,0.0002837,70.0026,197.5609,256.4482,103.6361,-0.0002219,-2.739e-05,0.0,0 STARLINK-5060,1 55413U 23014Y   23263.07430610 -.00002739  00000-0 -22190-3 0  9995,2 55413  70.0026 197.5609 0002837 256.4482 103.6361 14.98317484 35572,6950.232,96.108,574.068,570.125,0.0
55413.0,STARLINK-5060,PAYLOAD,2023-09-20 12:59:56,14.98337871,0.0002926,70.0026,196.3806,272.782,87.3004,-0.00048146,-5.834e-05,0.0,0 STARLINK-5060,1 55413U 23014Y   23263.54162191 -.00005834  00000-0 -48146-3 0  9991,2 55413  70.0026 196.3806 0002926 272.7820  87.3004 14.98337871 36580,6950.169,96.106,574.067,570.0,0.0
55413.0,STARLINK-5060,PAYLOAD,2023-09-20 21:00:36,14.98321871,0.0003051,70.0017,195.5398,270.1335,89.9474,-0.00022034,-2.72e-05,0.0,0 STARLINK-5060,1 55413U 23014Y   23263.87542739 -.00002720  00000-0 -22034-3 0  9996,2 55413  70.0017 195.5398 0003051 270.1335  89.9474 14.98321871 36638,6950.218,96.108,574.204,569.963,0.0
55413.0,STARLINK-5060,PAYLOAD,2023-09-21 05:01:17,14.98307847,0.0003004,70.0019,194.6977,278.7839,81.298,7.8963e-05,8.49e-06,0.0,0 STARLINK-5060,1 55413U 23014Y   23264.20922652  .00000849  00000-0  78963-4 0  9991,2 55413  70.0019 194.6977 0003004 278.7839  81.2980 14.98307847 36683,6950.261,96.108,574.214,570.039,0.0
55413.0,STARLINK-5060,PAYLOAD,2023-09-21 21:02:37,14.98316479,0.0002973,70.0029,193.017,270.1393,89.9425,0.00019289,2.209e-05,0.0,0 STARLINK-5060,1 55413U 23014Y   23264.87682355  .00002209  00000-0  19289-3 0  9994,2 55413  70.0029 193.0170 0002973 270.1393  89.9425 14.98316479 36788,6950.235,96.108,574.166,570.033,0.0
55413.0,STARLINK-5060,PAYLOAD,2023-09-22 01:51:00,14.98332777,0.000312,70.0019,192.51,273.0361,87.0441,0.00033832,3.946e-05,0.0,0 STARLINK-5060,1 55413U 23014Y   23265.07709001  .00003946  00000-0  33832-3 0  9994,2 55413  70.0019 192.5100 0003120 273.0361  87.0441 14.98332777 35871,6950.184,96.107,574.218,569.881,0.0
55413.0,STARLINK-5060,PAYLOAD,2023-09-22 05:03:17,14.98328819,0.0003158,70.0016,192.1728,273.4734,86.6064,0.00028365,3.293e-05,0.0,0 STARLINK-5060,1 55413U 23014Y   23265.21061408  .00003293  00000-0  28365-3 0  9992,2 55413  70.0016 192.1728 0003158 273.4734  86.6064 14.98328819 36834,6950.197,96.107,574.256,569.867,0.0
55413.0,STARLINK-5060,PAYLOAD,2023-09-22 17:52:22,14.98323925,0.0002965,70.0026,190.8274,273.742,86.34,0.00018913,2.164e-05,0.0,0 STARLINK-5060,1 55413U 23014Y   23265.74470144  .00002164  00000-0  18913-3 0  9995,2 55413  70.0026 190.8274 0002965 273.7420  86.3400 14.98323925 35974,6950.212,96.107,574.137,570.016,0.0
55413.0,STARLINK-5060,PAYLOAD,2023-09-22 21:04:38,14.98322543,0.0003032,70.0024,190.4906,273.4472,86.6341,0.00016826,1.915e-05,0.0,0 STARLINK-5060,1 55413U 23014Y   23265.87822409  .00001915  00000-0  16826-3 0  9998,2 55413  70.0024 190.4906 0003032 273.4472  86.6341 14.98322543 36939,6950.216,96.107,574.188,569.974,0.0
55413.0,STARLINK-5060,PAYLOAD,2023-09-23 05:05:18,14.98333037,0.0003052,70.0015,189.6484,269.2862,90.7947,0.00019473,2.231e-05,0.0,0 STARLINK-5060,1 55413U 23014Y   23266.21201633  .00002231  00000-0  19473-3 0  9990,2 55413  70.0015 189.6484 0003052 269.2862  90.7947 14.98333037 36048,6950.183,96.107,574.17,569.927,0.0
55413.0,STARLINK-5060,PAYLOAD,2023-09-24 01:55:03,14.98332793,0.0002919,70.0017,187.46,271.5314,88.5511,-9.6246e-05,-1.241e-05,0.0,0 STARLINK-5060,1 55413U 23014Y   23267.07990454 -.00001241  00000-0 -96246-4 0  9997,2 55413  70.0017 187.4600 0002919 271.5314  88.5511 14.98332793 36179,6950.184,96.107,574.078,570.02,0.0
55413.0,STARLINK-5060,PAYLOAD,2023-09-24 05:07:19,14.98336223,0.0002883,70.0019,187.1243,270.8688,89.2141,-4.361e-05,-6.13e-06,0.0,0 STARLINK-5060,1 55413U 23014Y   23267.21342063 -.00000613  00000-0 -43610-4 0  9999,2 55413  70.0019 187.1243 0002883 270.8688  89.2141 14.98336223 37133,6950.174,96.107,574.042,570.035,0.0
55413.0,STARLINK-5060,PAYLOAD,2023-09-24 22:44:48,14.983293,0.0003073,70.0018,185.2733,272.2173,87.8634,-2.9419e-05,-4.44e-06,0.0,0 STARLINK-5060,1 55413U 23014Y   23267.94778374 -.00000444  00000-0 -29419-4 0  9990,2 55413  70.0018 185.2733 0003073 272.2173  87.8634 14.98329300 37243,6950.195,96.107,574.196,569.924,0.0
55413.0,STARLINK-5060,PAYLOAD,2023-09-25 01:57:04,14.98333628,0.0002746,70.0019,184.937,262.2355,97.8493,-2.5519e-07,-9.6e-07,0.0,0 STARLINK-5060,1 55413U 23014Y   23268.08129976 -.00000096  00000-0 -25519-6 0  9996,2 55413  70.0019 184.9370 0002746 262.2355  97.8493 14.98333628 36324,6950.182,96.107,573.955,570.138,0.0
55413.0,STARLINK-5060,PAYLOAD,2023-09-25 05:09:20,14.98335754,0.000295,70.0019,184.5997,271.4584,88.6237,4.7947e-05,4.79e-06,0.0,0 STARLINK-5060,1 55413U 23014Y   23268.21481711  .00000479  00000-0  47947-4 0  9999,2 55413  70.0019 184.5997 0002950 271.4584  88.6237 14.98335754 37280,6950.175,96.107,574.09,569.99,0.0
55413.0,STARLINK-5060,PAYLOAD,2023-09-25 19:34:33,14.98323595,0.0002509,70.0024,183.0849,255.2885,104.7996,5.2654e-05,5.35e-06,0.0,0 STARLINK-5060,1 55413U 23014Y   23268.81566419  .00000535  00000-0  52654-4 0  9998,2 55413  70.0024 183.0849 0002509 255.2885 104.7996 14.98323595 36438,6950.213,96.107,573.822,570.334,0.0
55413.0,STARLINK-5060,PAYLOAD,2023-09-25 21:10:41,14.98308861,0.0002631,70.0024,182.9171,247.684,112.4041,0.00024872,2.874e-05,0.0,0 STARLINK-5060,1 55413U 23014Y   23268.88242681  .00002874  00000-0  24872-3 0  9995,2 55413  70.0024 182.9171 0002631 247.6840 112.4041 14.98308861 37387,6950.258,96.108,573.952,570.295,0.0
55413.0,STARLINK-5060,PAYLOAD,2023-09-26 03:35:14,14.98313005,0.0002643,70.0024,182.2441,248.0327,112.0551,0.00020638,2.369e-05,0.0,0 STARLINK-5060,1 55413U 23014Y   23269.14946820  .00002369  00000-0  20638-3 0  9996,2 55413  70.0024 182.2441 0002643 248.0327 112.0551 14.98313005 37421,6950.245,96.108,573.947,570.273,0.0
55413.0,STARLINK-5060,PAYLOAD,2023-09-26 21:12:42,14.98327734,0.0002522,70.002,180.3916,242.2049,117.8854,-1.164e-05,-2.32e-06,0.0,0 STARLINK-5060,1 55413U 23014Y   23269.88382568 -.00000232  00000-0 -11640-4 0  9993,2 55413  70.0020 180.3916 0002522 242.2049 117.8854 14.98327734 37531,6950.2,96.107,573.818,570.312,0.0
55413.0,STARLINK-5060,PAYLOAD,2023-09-27 02:01:06,14.98327507,0.0002513,70.0022,179.887,242.1892,117.9013,-1.1567e-05,-2.31e-06,0.0,0 STARLINK-5060,1 55413U 23014Y   23270.08410618 -.00000231  00000-0 -11567-4 0  9992,2 55413  70.0022 179.8870 0002513 242.1892 117.9013 14.98327507 36625,6950.201,96.107,573.812,570.319,0.0
55413.0,STARLINK-5060,PAYLOAD,2023-09-27 11:37:55,14.98331173,0.0002812,70.0012,178.8764,269.6317,90.452,-7.1521e-05,-9.46e-06,0.0,0 STARLINK-5060,1 55413U 23014Y   23270.48466593 -.00000946  00000-0 -71521-4 0  9998,2 55413  70.0012 178.8764 0002812 269.6317  90.4520 14.98331173 37626,6950.189,96.107,574.009,570.1,0.0
55413.0,STARLINK-5060,PAYLOAD,2023-09-28 02:03:08,14.983198,0.0002538,70.0019,177.3637,249.9358,110.1528,-3.6142e-05,-5.24e-06,0.0,0 STARLINK-5060,1 55413U 23014Y   23271.08551498 -.00000524  00000-0 -36142-4 0  9996,2 55413  70.0019 177.3637 0002538 249.9358 110.1528 14.98319800 36773,6950.224,96.108,573.853,570.325,0.0
55413.0,STARLINK-5060,PAYLOAD,2023-09-28 03:39:16,14.98320949,0.0002578,70.0018,177.1954,252.6092,107.4785,-2.499e-05,-3.91e-06,0.0,0 STARLINK-5060,1 55413U 23014Y   23271.15227431 -.00000391  00000-0 -24990-4 0  9991,2 55413  70.0018 177.1954 0002578 252.6092 107.4785 14.98320949 37728,6950.221,96.108,573.878,570.294,0.0
55413.0,STARLINK-5060,PAYLOAD,2023-09-28 18:04:28,14.98332154,0.0003318,70.0002,175.6802,273.811,86.2669,4.9349e-05,4.96e-06,0.0,0 STARLINK-5060,1 55413U 23014Y   23271.75310650  .00000496  00000-0  49349-4 0  9992,2 55413  70.0002 175.6802 0003318 273.8110  86.2669 14.98332154 36876,6950.186,96.107,574.357,569.745,0.0
